{"center":{"lat":10.772973055555555,"lon":106.65918888888889},"counts":{"buildings":0,"pois":8},"features":[{"geometry":{"coordinates":[106.6551268,10.7648824],"type":"Point"},"properties":{"category":"bus_stop","name":"Trạm Xe Bus Lê Đại Hành - Đối diện Flemington","osm_id":"node/3150623835"},"type":"Feature"},{"geometry":{"coordinates":[106.6712238,10.7699578],"type":"Point"},"properties":{"category":"bus_stop","name":"Trạm Xe Bus Sư Vạn Hạnh","osm_id":"node/3166367902"},"type":"Feature"},{"geometry":{"coordinates":[106.6570581,10.7606141],"type":"Point"},"properties":{"category":"bus_stop","name":"Trạm Xe Bus Chợ Thiếc","osm_id":"node/3170025871"},"type":"Feature"},{"geometry":{"coordinates":[106.6467608,10.7581932],"type":"Point"},"properties":{"category":"bus_stop","name":"Trạm Xe Bus Số 176 Hàn Hải Nguyên","osm_id":"node/3159362717"},"type":"Feature"},{"geometry":{"coordinates":[106.6421123,10.7621073],"type":"Point"},"properties":{"category":"bus_stop","name":"Trạm Xe Bus Số 222 Lạc Long Quân","osm_id":"node/3159048513"},"type":"Feature"},{"geometry":{"coordinates":[106.6436512,10.7584113],"type":"Point"},"properties":{"category":"bus_stop","name":"trạm xe bus Hàn Hải Nguyên - Minh Phụng","osm_id":"node/3159362716"},"type":"Feature"},{"geometry":{"coordinates":[106.6433017,10.7871777],"type":"Point"},"properties":{"category":"bus_stop","name":"Trạm Xe Bus Đồng Đen - Hồng Lạc","osm_id":"node/3186191727"},"type":"Feature"},{"geometry":{"coordinates":[106.642028,10.7585252],"type":"Point"},"properties":{"category":"bus_stop","name":"Trạm Xe Bus Chợ Bình Thới","osm_id":"node/3159362715"},"type":"Feature"}],"schema_version":1,"type":"FeatureCollection"}
